start=new Date('2022-08-26T00:00:00.000Z').valueOf();
sats=[{"RCS_SIZE":"LARGE","MEAN_MOTION_DDOT":"0.0000000000000","EPHEMERIS_TYPE":"0","BSTAR":"0.00000561850000","MEAN_MOTION_DOT":"-0.00000198","MEAN_ANOMALY":"288.3956","OBJECT_ID":"2021-018AT","CLASSIFICATION_TYPE":"U","MEAN_ELEMENT_THEORY":"SGP4","OBJECT_NAME":"STARLINK-2415","NORAD_CAT_ID":"47828","PERIOD":"95.593","PERIAPSIS":"546.330","SITE":"AFETR","LAUNCH_DATE":"2021-03-11","APOAPSIS":"548.173","ECCENTRICITY":"0.00013310","DECAY_DATE":null,"MEAN_MOTION":"15.06387623","ARG_OF_PERICENTER":"71.7178","EPOCH":"2022-08-25T10:00:23.893344","SEMIMAJOR_AXIS":"6925.386","OBJECT_TYPE":"PAYLOAD","COUNTRY_CODE":"US","ELEMENT_SET_NO":"999","CENTER_NAME":"EARTH","TIME_SYSTEM":"UTC","TLE_LINE2":"2 47828  53.0551 302.8624 0001331  71.7178 288.3956 15.06387623 81689","REV_AT_EPOCH":"8168","RA_OF_ASC_NODE":"302.8624","INCLINATION":"53.0551","TLE_LINE1":"1 47828U 21018AT  22237.41694321 -.00000198  00000-0  56185-5 0  9996","REF_FRAME":"TEME","GP_ID":"210971254","FILE":"3547226"},{"MEAN_ANOMALY":"279.1860","OBJECT_ID":"2021-018AU","CLASSIFICATION_TYPE":"U","RCS_SIZE":"LARGE","MEAN_MOTION_DDOT":"0.0000000000000","EPHEMERIS_TYPE":"0","MEAN_MOTION_DOT":"-0.00000301","BSTAR":"-0.00000128910000","SITE":"AFETR","PERIAPSIS":"546.308","LAUNCH_DATE":"2021-03-11","ECCENTRICITY":"0.00013630","APOAPSIS":"548.195","DECAY_DATE":null,"MEAN_ELEMENT_THEORY":"SGP4","OBJECT_NAME":"STARLINK-2416","NORAD_CAT_ID":"47829","PERIOD":"95.593","COUNTRY_CODE":"US","OBJECT_TYPE":"PAYLOAD","ELEMENT_SET_NO":"999","CENTER_NAME":"EARTH","TIME_SYSTEM":"UTC","MEAN_MOTION":"15.06387620","EPOCH":"2022-08-25T10:26:56.747328","ARG_OF_PERICENTER":"80.9283","SEMIMAJOR_AXIS":"6925.387","RA_OF_ASC_NODE":"302.7780","INCLINATION":"53.0547","TLE_LINE1":"1 47829U 21018AU  22237.43537902 -.00000301  00000-0 -12891-5 0  9993","REF_FRAME":"TEME","GP_ID":"210972004","FILE":"3547226","TLE_LINE2":"2 47829  53.0547 302.7780 0001363  80.9283 279.1860 15.06387620 81679","REV_AT_EPOCH":"8167"},{"TLE_LINE2":"2 47830  53.0538 302.8047 0001407  72.7838 287.3305 15.06392278 81672","REV_AT_EPOCH":"8167","GP_ID":"210970752","FILE":"3547226","RA_OF_ASC_NODE":"302.8047","INCLINATION":"53.0538","TLE_LINE1":"1 47830U 21018AV  22237.43168519  .00000901  00000-0  79386-4 0  9994","REF_FRAME":"TEME","SEMIMAJOR_AXIS":"6925.372","MEAN_MOTION":"15.06392278","ARG_OF_PERICENTER":"72.7838","EPOCH":"2022-08-25T10:21:37.600416","CENTER_NAME":"EARTH","TIME_SYSTEM":"UTC","OBJECT_TYPE":"PAYLOAD","COUNTRY_CODE":"US","ELEMENT_SET_NO":"999","NORAD_CAT_ID":"47830","PERIOD":"95.593","MEAN_ELEMENT_THEORY":"SGP4","OBJECT_NAME":"STARLINK-2419","APOAPSIS":"548.212","ECCENTRICITY":"0.00014070","DECAY_DATE":null,"PERIAPSIS":"546.263","SITE":"AFETR","LAUNCH_DATE":"2021-03-11","EPHEMERIS_TYPE":"0","BSTAR":"0.00007938600000","MEAN_MOTION_DOT":"0.00000901","RCS_SIZE":"LARGE","MEAN_MOTION_DDOT":"0.0000000000000","CLASSIFICATION_TYPE":"U","MEAN_ANOMALY":"287.3305","OBJECT_ID":"2021-018AV"},{"SEMIMAJOR_AXIS":"6925.352","ARG_OF_PERICENTER":"75.3280","EPOCH":"2022-08-25T19:55:31.082304","MEAN_MOTION":"15.06399034","TIME_SYSTEM":"UTC","CENTER_NAME":"EARTH","ELEMENT_SET_NO":"999","COUNTRY_CODE":"US","OBJECT_TYPE":"PAYLOAD","REV_AT_EPOCH":"8214","TLE_LINE2":"2 47831  53.0525 276.0142 0001280  75.3280 284.7851 15.06399034 82143","GP_ID":"211006502","FILE":"3547674","REF_FRAME":"TEME","INCLINATION":"53.0525","RA_OF_ASC_NODE":"276.0142","TLE_LINE1":"1 47831U 21018AW  22237.83022086  .00001360  00000-0  11018-3 0  9994","MEAN_MOTION_DOT":"0.00001360","BSTAR":"0.00011018000000","EPHEMERIS_TYPE":"0","MEAN_MOTION_DDOT":"0.0000000000000","RCS_SIZE":"LARGE","CLASSIFICATION_TYPE":"U","MEAN_ANOMALY":"284.7851","OBJECT_ID":"2021-018AW","PERIOD":"95.592","NORAD_CAT_ID":"47831","OBJECT_NAME":"STARLINK-2420","MEAN_ELEMENT_THEORY":"SGP4","APOAPSIS":"548.103","ECCENTRICITY":"0.00012800","DECAY_DATE":null,"LAUNCH_DATE":"2021-03-11","PERIAPSIS":"546.330","SITE":"AFETR"},{"MEAN_MOTION_DDOT":"0.0000000000000","RCS_SIZE":"LARGE","MEAN_MOTION_DOT":"0.00000196","BSTAR":"0.00003202000000","EPHEMERIS_TYPE":"0","MEAN_ANOMALY":"276.9051","OBJECT_ID":"2021-018AX","CLASSIFICATION_TYPE":"U","OBJECT_NAME":"STARLINK-2422","MEAN_ELEMENT_THEORY":"SGP4","PERIOD":"95.592","NORAD_CAT_ID":"47832","LAUNCH_DATE":"2021-03-11","SITE":"AFETR","PERIAPSIS":"546.417","ECCENTRICITY":"0.00011660","APOAPSIS":"548.032","DECAY_DATE":null,"ARG_OF_PERICENTER":"83.2071","EPOCH":"2022-08-25T20:28:02.332128","MEAN_MOTION":"15.06396427","SEMIMAJOR_AXIS":"6925.360","ELEMENT_SET_NO":"999","COUNTRY_CODE":"US","OBJECT_TYPE":"PAYLOAD","TIME_SYSTEM":"UTC","CENTER_NAME":"EARTH","REV_AT_EPOCH":"8188","TLE_LINE2":"2 47832  53.0545 290.9060 0001166  83.2071 276.9051 15.06396427 81887","REF_FRAME":"TEME","RA_OF_ASC_NODE":"290.9060","INCLINATION":"53.0545","TLE_LINE1":"1 47832U 21018AX  22237.85280477  .00000196  00000-0  32020-4 0  9990","GP_ID":"211006247","FILE":"3547674"},{"PERIOD":"95.592","NORAD_CAT_ID":"47833","OBJECT_NAME":"STARLINK-2423","MEAN_ELEMENT_THEORY":"SGP4","ECCENTRICITY":"0.00013820","APOAPSIS":"548.170","DECAY_DATE":null,"LAUNCH_DATE":"2021-03-11","SITE":"AFETR","PERIAPSIS":"546.256","MEAN_MOTION_DOT":"-0.00000459","BSTAR":"-0.00001188900000","EPHEMERIS_TYPE":"0","MEAN_MOTION_DDOT":"0.0000000000000","RCS_SIZE":"LARGE","CLASSIFICATION_TYPE":"U","MEAN_ANOMALY":"287.3633","OBJECT_ID":"2021-018AY","REV_AT_EPOCH":"8187","TLE_LINE2":"2 47833  53.0536 292.8736 0001382  72.7507 287.3633 15.06400168 81875","GP_ID":"210971505","FILE":"3547226","REF_FRAME":"TEME","INCLINATION":"53.0536","RA_OF_ASC_NODE":"292.8736","TLE_LINE1":"1 47833U 21018AY  22237.41417732 -.00000459  00000-0 -11889-4 0  9993","SEMIMAJOR_AXIS":"6925.348","EPOCH":"2022-08-25T09:56:24.920448","ARG_OF_PERICENTER":"72.7507","MEAN_MOTION":"15.06400168","TIME_SYSTEM":"UTC","CENTER_NAME":"EARTH","ELEMENT_SET_NO":"999","COUNTRY_CODE":"US","OBJECT_TYPE":"PAYLOAD"},{"APOAPSIS":"548.108","ECCENTRICITY":"0.00013320","DECAY_DATE":null,"SITE":"AFETR","PERIAPSIS":"546.263","LAUNCH_DATE":"2021-03-11","NORAD_CAT_ID":"47834","PERIOD":"95.592","MEAN_ELEMENT_THEORY":"SGP4","OBJECT_NAME":"STARLINK-2424","CLASSIFICATION_TYPE":"U","MEAN_ANOMALY":"283.8096","OBJECT_ID":"2021-018AZ","EPHEMERIS_TYPE":"0","BSTAR":"0.00012572000000","MEAN_MOTION_DOT":"0.00001592","RCS_SIZE":"LARGE","MEAN_MOTION_DDOT":"0.0000000000000","GP_ID":"210970253","FILE":"3547226","INCLINATION":"53.0545","RA_OF_ASC_NODE":"292.8230","TLE_LINE1":"1 47834U 21018AZ  22237.42522523  .00001592  00000-0  12572-3 0  9996","REF_FRAME":"TEME","TLE_LINE2":"2 47834  53.0545 292.8230 0001332  76.3041 283.8096 15.06409075 81873","REV_AT_EPOCH":"8187","CENTER_NAME":"EARTH","TIME_SYSTEM":"UTC","OBJECT_TYPE":"PAYLOAD","COUNTRY_CODE":"US","ELEMENT_SET_NO":"999","SEMIMAJOR_AXIS":"6925.321","MEAN_MOTION":"15.06409075","EPOCH":"2022-08-25T10:12:19.459872","ARG_OF_PERICENTER":"76.3041"},{"REV_AT_EPOCH":"8177","TLE_LINE2":"2 47835  53.0557 296.9312 0001084  87.5869 272.5244 15.06402789 81773","GP_ID":"211006002","FILE":"3547674","REF_FRAME":"TEME","RA_OF_ASC_NODE":"296.9312","INCLINATION":"53.0557","TLE_LINE1":"1 47835U 21018BA  22237.65147441  .00001439  00000-0  11545-3 0  9993","SEMIMAJOR_AXIS":"6925.340","ARG_OF_PERICENTER":"87.5869","EPOCH":"2022-08-25T15:38:07.389024","MEAN_MOTION":"15.06402789","TIME_SYSTEM":"UTC","CENTER_NAME":"EARTH","ELEMENT_SET_NO":"999","OBJECT_TYPE":"PAYLOAD","COUNTRY_CODE":"US","PERIOD":"95.592","NORAD_CAT_ID":"47835","OBJECT_NAME":"STARLINK-2425","MEAN_ELEMENT_THEORY":"SGP4","APOAPSIS":"547.956","ECCENTRICITY":"0.00010840","DECAY_DATE":null,"LAUNCH_DATE":"2021-03-11","SITE":"AFETR","PERIAPSIS":"546.454","MEAN_MOTION_DOT":"0.00001439","BSTAR":"0.00011545000000","EPHEMERIS_TYPE":"0","MEAN_MOTION_DDOT":"0.0000000000000","RCS_SIZE":"LARGE","CLASSIFICATION_TYPE":"U","MEAN_ANOMALY":"272.5244","OBJECT_ID":"2021-018BA"},{"MEAN_MOTION":"15.06403167","ARG_OF_PERICENTER":"69.5140","EPOCH":"2022-08-25T20:12:07.485120","SEMIMAJOR_AXIS":"6925.339","COUNTRY_CODE":"US","OBJECT_TYPE":"PAYLOAD","ELEMENT_SET_NO":"999","CENTER_NAME":"EARTH","TIME_SYSTEM":"UTC","TLE_LINE2":"2 47836  53.0550 291.0434 0001223  69.5140 290.5980 15.06403167 81885","REV_AT_EPOCH":"8188","RA_OF_ASC_NODE":"291.0434","INCLINATION":"53.0550","TLE_LINE1":"1 47836U 21018BB  22237.84175330  .00000337  00000-0  41490-4 0  9992","REF_FRAME":"TEME","GP_ID":"211006748","FILE":"3547674","RCS_SIZE":"LARGE","MEAN_MOTION_DDOT":"0.0000000000000","EPHEMERIS_TYPE":"0","MEAN_MOTION_DOT":"0.00000337","BSTAR":"0.00004149000000","MEAN_ANOMALY":"290.5980","OBJECT_ID":"2021-018BB","CLASSIFICATION_TYPE":"U","MEAN_ELEMENT_THEORY":"SGP4","OBJECT_NAME":"STARLINK-2426","NORAD_CAT_ID":"47836","PERIOD":"95.592","SITE":"AFETR","PERIAPSIS":"546.357","LAUNCH_DATE":"2021-03-11","ECCENTRICITY":"0.00012230","APOAPSIS":"548.051","DECAY_DATE":null},{"REF_FRAME":"TEME","INCLINATION":"53.0540","RA_OF_ASC_NODE":"271.2083","TLE_LINE1":"1 47837U 21018BC  22237.78461241 -.00000586  00000-0 -20429-4 0  9992","GP_ID":"211005009","FILE":"3547674","REV_AT_EPOCH":"8216","TLE_LINE2":"2 47837  53.0540 271.2083 0001344  68.1654 291.9477 15.06398275 82165","ELEMENT_SET_NO":"999","OBJECT_TYPE":"PAYLOAD","COUNTRY_CODE":"US","TIME_SYSTEM":"UTC","CENTER_NAME":"EARTH","EPOCH":"2022-08-25T18:49:50.512224","ARG_OF_PERICENTER":"68.1654","MEAN_MOTION":"15.06398275","SEMIMAJOR_AXIS":"6925.354","LAUNCH_DATE":"2021-03-11","SITE":"AFETR","PERIAPSIS":"546.288","ECCENTRICITY":"0.00013440","APOAPSIS":"548.150","DECAY_DATE":null,"OBJECT_NAME":"STARLINK-2427","MEAN_ELEMENT_THEORY":"SGP4","PERIOD":"95.592","NORAD_CAT_ID":"47837","MEAN_ANOMALY":"291.9477","OBJECT_ID":"2021-018BC","CLASSIFICATION_TYPE":"U","MEAN_MOTION_DDOT":"0.0000000000000","RCS_SIZE":"LARGE","BSTAR":"-0.00002042900000","MEAN_MOTION_DOT":"-0.00000586","EPHEMERIS_TYPE":"0"}];
